NORAD_CAT_ID,OBJECT_NAME,OBJECT_TYPE,EPOCH,MEAN_MOTION,ECCENTRICITY,INCLINATION,RA_OF_ASC_NODE,ARG_OF_PERICENTER,MEAN_ANOMALY,BSTAR,MEAN_MOTION_DOT,MEAN_MOTION_DDOT,TLE_LINE0,TLE_LINE1,TLE_LINE2,SEMIMAJOR_AXIS,PERIOD,APOGEE,PERIGEE,DECAYED
53779.0,STARLINK-4706,PAYLOAD,2023-05-01 22:23:02,15.08842486,0.0001259,53.2149,275.3551,71.0837,289.0292,0.00015918,2.247e-05,0.0,0 STARLINK-4706,1 53779U 22111G   23121.93267251  .00002247  00000-0  15918-3 0  9994,2 53779  53.2149 275.3551 0001259  71.0837 289.0292 15.08842486 35464,6917.873,95.437,540.609,538.867,0.0
53779.0,STARLINK-4706,PAYLOAD,2023-05-02 12:41:31,15.08842987,0.0001135,53.2151,272.6749,100.7755,259.3364,0.0001108,1.476e-05,0.0,0 STARLINK-4706,1 53779U 22111G   23122.52883192  .00001476  00000-0  11080-3 0  9997,2 53779  53.2151 272.6749 0001135 100.7755 259.3364 15.08842987 36364,6917.871,95.437,540.521,538.951,0.0
53779.0,STARLINK-4706,PAYLOAD,2023-05-02 19:03:03,15.0884922,0.0001313,53.2152,271.487,78.1185,281.9954,0.00056626,8.738e-05,0.0,0 STARLINK-4706,1 53779U 22111G   23122.79379317  .00008738  00000-0  56626-3 0  9998,2 53779  53.2152 271.4870 0001313  78.1185 281.9954 15.08849220 36408,6917.852,95.437,540.626,538.809,0.0
53779.0,STARLINK-4706,PAYLOAD,2023-05-03 02:59:59,15.08840204,0.0001023,53.2144,270.0011,82.8131,277.2977,0.0003814,5.787e-05,0.0,0 STARLINK-4706,1 53779U 22111G   23123.12499431  .00005787  00000-0  38140-3 0  9998,2 53779  53.2144 270.0011 0001023  82.8131 277.2977 15.08840204 35643,6917.88,95.438,540.452,539.037,0.0
53779.0,STARLINK-4706,PAYLOAD,2023-05-03 14:07:41,15.0883795,0.0001167,53.2155,267.9195,82.7018,277.4107,7.001e-05,8.26e-06,0.0,0 STARLINK-4706,1 53779U 22111G   23123.58867613  .00000826  00000-0  70010-4 0  9991,2 53779  53.2155 267.9195 0001167  82.7018 277.4107 15.08837950 36524,6917.887,95.438,540.559,538.944,0.0
53779.0,STARLINK-4706,PAYLOAD,2023-05-03 18:53:50,15.08844028,0.0001153,53.2157,267.0281,80.3527,279.7595,0.00018575,2.67e-05,0.0,0 STARLINK-4706,1 53779U 22111G   23123.78739456  .00002670  00000-0  18575-3 0  9992,2 53779  53.2157 267.0281 0001153  80.3527 279.7595 15.08844028 36550,6917.868,95.437,540.531,538.935,0.0
53779.0,STARLINK-4706,PAYLOAD,2023-05-04 13:58:28,15.08840309,0.0001262,53.2165,263.4607,87.9261,272.1876,2.1015e-05,4.7e-07,0.0,0 STARLINK-4706,1 53779U 22111G   23124.58227920  .00000047  00000-0  21015-4 0  9999,2 53779  53.2165 263.4607 0001262  87.9261 272.1876 15.08840309 35860,6917.879,95.438,540.617,538.871,0.0
53779.0,STARLINK-4706,PAYLOAD,2023-05-04 18:44:38,15.08845216,0.0001255,53.2166,262.5686,89.3043,270.8093,9.1554e-05,1.17e-05,0.0,0 STARLINK-4706,1 53779U 22111G   23124.78099671  .00001170  00000-0  91554-4 0  9994,2 53779  53.2166 262.5686 0001255  89.3043 270.8093 15.08845216 36706,6917.864,95.437,540.598,538.861,0.0
53779.0,STARLINK-4706,PAYLOAD,2023-05-05 15:24:39,15.08846199,0.0001327,53.2157,258.7031,70.479,289.6345,0.00019924,2.885e-05,0.0,0 STARLINK-4706,1 53779U 22111G   23125.64211909  .00002885  00000-0  19924-3 0  9994,2 53779  53.2157 258.7031 0001327  70.4790 289.6345 15.08846199 36021,6917.861,95.437,540.644,538.808,0.0
53779.0,STARLINK-4706,PAYLOAD,2023-05-05 20:10:48,15.08853723,0.0001343,53.2158,257.8102,74.2853,285.8287,0.00038783,5.892e-05,0.0,0 STARLINK-4706,1 53779U 22111G   23125.84083601  .00005892  00000-0  38783-3 0  9997,2 53779  53.2158 257.8102 0001343  74.2853 285.8287 15.08853723 36867,6917.838,95.437,540.633,538.774,0.0
53779.0,STARLINK-4706,PAYLOAD,2023-05-06 15:15:25,15.08849799,0.0001314,53.2152,254.2414,73.0385,287.0751,0.00024083,3.548e-05,0.0,0 STARLINK-4706,1 53779U 22111G   23126.63571678  .00003548  00000-0  24083-3 0  9995,2 53779  53.2152 254.2414 0001314  73.0385 287.0751 15.08849799 36984,6917.85,95.437,540.624,538.806,0.0
53779.0,STARLINK-4706,PAYLOAD,2023-05-06 18:26:11,15.08854885,0.0001239,53.2152,253.6447,83.0772,277.0361,0.00031415,4.717e-05,0.0,0 STARLINK-4706,1 53779U 22111G   23126.76819340  .00004717  00000-0  31415-3 0  9996,2 53779  53.2152 253.6447 0001239  83.0772 277.0361 15.08854885 36191,6917.835,95.437,540.557,538.843,0.0
53779.0,STARLINK-4706,PAYLOAD,2023-05-07 11:55:26,15.08839801,0.0001742,53.2144,250.3681,127.5287,232.5863,3.3198e-05,2.4e-06,0.0,0 STARLINK-4706,1 53779U 22111G   23127.49683887  .00000240  00000-0  33198-4 0  9990,2 53779  53.2144 250.3681 0001742 127.5287 232.5863 15.08839801 36307,6917.881,95.438,540.951,538.541,0.0
53779.0,STARLINK-4706,PAYLOAD,2023-05-07 13:30:50,15.08838763,0.0001368,53.2145,250.071,115.3887,244.7247,3.0421e-05,1.96e-06,0.0,0 STARLINK-4706,1 53779U 22111G   23127.56307989  .00000196  00000-0  30421-4 0  9990,2 53779  53.2145 250.0710 0001368 115.3887 244.7247 15.08838763 37121,6917.884,95.438,540.696,538.803,0.0
53779.0,STARLINK-4706,PAYLOAD,2023-05-08 16:32:23,15.08852201,0.0001283,53.2166,245.0255,99.659,260.4547,0.00066448,0.00010307,0.0,0 STARLINK-4706,1 53779U 22111G   23128.68916108  .00010307  00000-0  66448-3 0  9995,2 53779  53.2166 245.0255 0001283  99.6590 260.4547 15.08852201 36482,6917.843,95.437,540.596,538.821,0.0
53779.0,STARLINK-4706,PAYLOAD,2023-05-09 13:12:24,15.0884683,0.0001236,53.2163,241.1585,97.8901,262.2232,0.00029303,4.38e-05,0.0,0 STARLINK-4706,1 53779U 22111G   23129.55028166  .00004380  00000-0  29303-3 0  9993,2 53779  53.2163 241.1585 0001236  97.8901 262.2232 15.08846830 37423,6917.86,95.437,540.58,538.869,0.0
53779.0,STARLINK-4706,PAYLOAD,2023-05-10 13:03:11,15.08844375,7.71e-05,53.2148,236.6977,82.9051,277.2029,0.0010668,0.00016733,0.0,0 STARLINK-4706,1 53779U 22111G   23130.54388335  .00016733  00000-0  10668-2 0  9999,2 53779  53.2148 236.6977 0000771  82.9051 277.2029 15.08844375 37572,6917.867,95.437,540.265,539.199,0.0
53779.0,STARLINK-4706,PAYLOAD,2023-05-10 19:24:43,15.08870238,9.88e-05,53.2144,235.5078,87.2361,272.8744,0.0020378,0.00032319,0.0,0 STARLINK-4706,1 53779U 22111G   23130.80883968  .00032319  00000-0  20378-2 0  9997,2 53779  53.2144 235.5078 0000988  87.2361 272.8744 15.08870238 36807,6917.788,95.436,540.336,538.969,0.0
53779.0,STARLINK-4706,PAYLOAD,2023-05-11 00:10:53,15.08839393,2.3e-05,53.2148,234.6166,124.205,235.8964,0.00010671,1.411e-05,0.0,0 STARLINK-4706,1 53779U 22111G   23131.00756100  .00001411  00000-0  10671-3 0  9992,2 53779  53.2148 234.6166 0000230 124.2050 235.8964 15.08839393 36839,6917.882,95.438,539.906,539.588,0.0
53779.0,STARLINK-4706,PAYLOAD,2023-05-11 11:18:35,15.08845313,0.0001336,53.2147,232.5317,95.139,264.9755,0.00041329,6.297e-05,0.0,0 STARLINK-4706,1 53779U 22111G   23131.47124429  .00006297  00000-0  41329-3 0  9997,2 53779  53.2147 232.5317 0001336  95.1390 264.9755 15.08845313 37712,6917.864,95.437,540.653,538.805,0.0
53779.0,STARLINK-4706,PAYLOAD,2023-05-11 12:53:58,15.08842606,0.0001157,53.2138,232.2354,91.0424,269.0701,0.00014954,2.093e-05,0.0,0 STARLINK-4706,1 53779U 22111G   23131.53748392  .00002093  00000-0  14954-3 0  9999,2 53779  53.2138 232.2354 0001157  91.0424 269.0701 15.08842606 37724,6917.872,95.437,540.538,538.937,0.0
53779.0,STARLINK-4706,PAYLOAD,2023-05-12 00:01:40,15.08849843,0.0001031,53.2133,230.1569,80.6106,279.5003,0.0004418,6.752e-05,0.0,0 STARLINK-4706,1 53779U 22111G   23132.00116262  .00006752  00000-0  44180-3 0  9997,2 53779  53.2133 230.1569 0001031  80.6106 279.5003 15.08849843 37794,6917.85,95.437,540.429,539.002,0.0
53779.0,STARLINK-4706,PAYLOAD,2023-05-12 23:52:27,15.08845347,0.0001536,53.2158,225.6965,78.1151,282.0013,0.00028906,4.316e-05,0.0,0 STARLINK-4706,1 53779U 22111G   23132.99476542  .00004316  00000-0  28906-3 0  9997,2 53779  53.2158 225.6965 0001536  78.1151 282.0013 15.08845347 37135,6917.864,95.437,540.792,538.666,0.0
53779.0,STARLINK-4706,PAYLOAD,2023-05-13 12:35:32,15.08848514,0.0001313,53.2154,223.3138,98.772,261.3421,0.00022653,3.32e-05,0.0,0 STARLINK-4706,1 53779U 22111G   23133.52468090  .00003320  00000-0  22653-3 0  9993,2 53779  53.2154 223.3138 0001313  98.7720 261.3421 15.08848514 38022,6917.854,95.437,540.628,538.811,0.0
53779.0,STARLINK-4706,PAYLOAD,2023-05-14 12:26:19,15.08836757,0.0001276,53.2158,218.8518,102.988,257.1255,1.8756e-05,1.1e-07,0.0,0 STARLINK-4706,1 53779U 22111G   23134.51828594  .00000011  00000-0  18756-4 0  9996,2 53779  53.2158 218.8518 0001276 102.9880 257.1255 15.08836757 37360,6917.89,95.438,540.638,538.873,0.0
53779.0,STARLINK-4706,PAYLOAD,2023-05-15 12:17:07,15.08841493,0.0001235,53.216,214.3989,105.1998,254.9131,4.7986e-05,4.76e-06,0.0,0 STARLINK-4706,1 53779U 22111G   23135.51188668  .00000476  00000-0  47986-4 0  9990,2 53779  53.2160 214.3989 0001235 105.1998 254.9131 15.08841493 38324,6917.876,95.437,540.595,538.886,0.0
53779.0,STARLINK-4706,PAYLOAD,2023-05-16 10:32:31,15.0883832,0.000126,53.2163,210.2369,108.0593,252.0536,0.00010989,1.461e-05,0.0,0 STARLINK-4706,1 53779U 22111G   23136.43924990  .00001461  00000-0  10989-3 0  9995,2 53779  53.2163 210.2369 0001260 108.0593 252.0536 15.08838320 37653,6917.886,95.438,540.622,538.879,0.0
53779.0,STARLINK-4706,PAYLOAD,2023-05-16 21:40:13,15.08838281,0.0001199,53.216,208.1547,103.0874,257.0252,7.9803e-05,9.82e-06,0.0,0 STARLINK-4706,1 53779U 22111G   23136.90293029  .00000982  00000-0  79803-4 0  9997,2 53779  53.2160 208.1547 0001199 103.0874 257.0252 15.08838281 38536,6917.886,95.438,540.58,538.921,0.0
53779.0,STARLINK-4706,PAYLOAD,2023-05-17 13:34:04,15.08843859,0.0001082,53.2159,205.1783,88.4247,271.6869,0.00010906,1.448e-05,0.0,0 STARLINK-4706,1 53779U 22111G   23137.56532883  .00001448  00000-0  10906-3 0  9990,2 53779  53.2159 205.1783 0001082  88.4247 271.6869 15.08843859 37828,6917.869,95.437,540.482,538.985,0.0
53779.0,STARLINK-4706,PAYLOAD,2023-05-18 11:49:28,15.08838813,0.0001223,53.2166,201.0115,77.9903,282.1226,5.7709e-05,6.31e-06,0.0,0 STARLINK-4706,1 53779U 22111G   23138.49269383  .00000631  00000-0  57709-4 0  9991,2 53779  53.2166 201.0115 0001223  77.9903 282.1226 15.08838813 37962,6917.884,95.438,540.595,538.903,0.0
